O3B MPOWER F1           
1 54755U 22174A   23360.81279345 -.00000023  00000+0  00000+0 0  9999
2 54755   0.0567  15.2706 0006029 273.3513  28.1366  5.00118437 20162
